0 THORAD AGENA D DEB
1 04112U 69082CZ  13282.47655839  .00032192  00000-0  28936-2 0  9678
2 04112 069.7205 319.1562 0020141 354.6067 114.6152 14.95386002346882
0 THORAD AGENA D DEB
1 04112U 69082CZ  13283.20322154  .00026481  00000-0  23820-2 0  9683
2 04112 069.7204 317.3076 0020176 353.6580 066.4342 14.95413731346995
0 THORAD AGENA D DEB
1 04112U 69082CZ  13283.66030272  .00065886  00000-0  59160-2 0  9701
2 04112 069.7203 316.1471 0020057 352.4838 007.6516 14.95444210347066
0 THORAD AGENA D DEB
1 04112U 69082CZ  13284.47575498  .00029391  00000-0  26386-2 0  9698
2 04112 069.7205 314.0704 0020197 352.0125 077.0074 14.95459207347189
0 THORAD AGENA D DEB
1 04112U 69082CZ  13285.48351380  .00024845  00000-0  22306-2 0  9701
2 04112 069.7203 311.5068 0020225 350.4977 102.5700 14.95505839347331
0 THORAD AGENA D DEB
1 04112U 69082CZ  13286.49907801  .00024977  00000-0  22397-2 0  9715
2 04112 069.7200 308.9231 0020243 349.0970 170.1999 14.95550699347488
0 THORAD AGENA D DEB
1 04112U 69082CZ  13288.14845303  .00047343  00000-0  42138-2 0  9725
2 04112 069.7192 304.7263 0020189 347.0461 050.3176 14.95649465347722
0 THORAD AGENA D DEB
1 04112U 69082CZ  13289.15657574  .00039587  00000-0  35225-2 0  9739
2 04112 069.7189 302.1604 0020121 345.6632 078.4431 14.95719558347871
0 THORAD AGENA D DEB
1 04112U 69082CZ  13290.10075503  .00037718  00000-0  33530-2 0  9744
2 04112 069.7186 299.7568 0020101 344.2615 122.5843 14.95772473348023
0 THORAD AGENA D DEB
1 04112U 69082CZ  13291.16400370  .00036721  00000-0  32589-2 0  9752
2 04112 069.7186 297.0499 0020016 342.7457 088.0661 14.95847593348186
0 THORAD AGENA D DEB
1 04112U 69082CZ  13292.16719737  .00036294  00000-0  32157-2 0  9760
2 04112 069.7186 294.4955 0019965 341.3367 090.3962 14.95915659348336
0 THORAD AGENA D DEB
1 04112U 69082CZ  13293.51035255  .00044191  00000-0  38998-2 0  9771
2 04112 069.7188 291.0757 0019810 339.7500 123.5712 14.96012817348539
0 THORAD AGENA D DEB
1 04112U 69082CZ  13294.77220108  .00054314  00000-0  47737-2 0  9783
2 04112 069.7191 287.8622 0019627 337.9710 079.6120 14.96102974348725
0 THORAD AGENA D DEB
1 04112U 69082CZ  13295.84514311  .00053576  00000-0  46992-2 0  9796
2 04112 069.7193 285.1295 0019461 336.3960 098.6430 14.96190292348882
